KUIPER-00213            
1 67777U 26030P   26062.67296980  .00032459  00000+0  10237-2 0  9995
2 67777  51.8794 248.4825 0014923  46.9159 313.3072 15.32480694  4168
KUIPER-00214            
1 67778U 26030Q   26062.76175712  .00040440  00000+0  11220-2 0  9997
2 67778  51.8841 247.5969 0000878 203.9464 156.1482 15.36518839  4186
KUIPER-00215            
1 67779U 26030R   26062.72483264  .00027076  00000+0  81372-3 0  9994
2 67779  51.8829 248.0923 0009895  43.4112 316.7651 15.34170139  4170
KUIPER-00218            
1 67780U 26030S   26062.71605359  .00040465  00000+0  11818-2 0  9990
2 67780  51.8831 248.0345 0006455  34.3591 325.7811 15.34896928  4171
KUIPER-00220            
1 67781U 26030T   26062.72169500  .00039409  00000+0  11665-2 0  9991
2 67781  51.8802 248.0653 0008237  39.3791 320.7792 15.34474365  4179
KUIPER-00222            
1 67782U 26030U   26062.74162345  .00072834  00000+0  22794-2 0  9998
2 67782  51.8794 248.1907 0017603  41.4142 318.8173 15.32313095  4175
KUIPER-00223            
1 67783U 26030V   26062.72791109  .00027332  00000+0  82604-3 0  9993
2 67783  51.8814 248.1088 0012153  43.6155 316.5789 15.33963691  4174
KUIPER-00225            
1 67784U 26030W   26062.70789911  .00028696  00000+0  82403-3 0  9991
2 67784  51.8806 247.9761 0003885  24.1858 335.9310 15.35609462  4177
KUIPER-00226            
1 67785U 26030X   26062.75170446  .00001798  00000+0  70422-4 0  9997
2 67785  51.8808 248.2558 0019500  55.7907 304.4922 15.31333072  4171
KUIPER-00259            
1 67786U 26030Y   26062.78309111  .00037811  00000+0  11085-2 0  9997
2 67786  51.8805 247.7273 0008118  32.9113 327.2376 15.34798254  4183
KUIPER-00260            
1 67787U 26030Z   26062.70085587  .00037768  00000+0  10606-2 0  9997
2 67787  51.8794 247.9291 0000882  68.9976 291.1104 15.36174803  4086
KUIPER-00262            
1 67788U 26030AA  26062.69768580  .00030637  00000+0  85475-3 0  9992
2 67788  51.8807 247.9114 0000608 148.8745 211.2278 15.36481139  4172
